[{"OBJECT_NAME":"ATLAS CENTAUR 2","OBJECT_ID":"1963-047A","EPOCH":"2026-03-22T11:35:37.978080","MEAN_MOTION":14.12113741,"ECCENTRICITY":0.05474205,"INCLINATION":30.354,"RA_OF_ASC_NODE":124.1421,"ARG_OF_PERICENTER":193.0407,"MEAN_ANOMALY":165.5509,"EPHEMERIS_TYPE":0,"CLASSIFICATION_TYPE":"U","NORAD_CAT_ID":694,"ELEMENT_SET_NO":999,"REV_AT_EPOCH":13343,"BSTAR":0.00023693249,"MEAN_MOTION_DOT":2.049e-5,"MEAN_MOTION_DDOT":0},{"OBJECT_NAME":"THOR AGENA D R/B","OBJECT_ID":"1964-002A","EPOCH":"2026-03-23T06:25:12.235008","MEAN_MOTION":14.34027088,"ECCENTRICITY":0.00323112,"INCLINATION":99.1219,"RA_OF_ASC_NODE":96.3449,"ARG_OF_PERICENTER":217.5737,"MEAN_ANOMALY":142.3188,"EPHEMERIS_TYPE":0,"CLASSIFICATION_TYPE":"U","NORAD_CAT_ID":733,"ELEMENT_SET_NO":999,"REV_AT_EPOCH":24024,"BSTAR":7.6708538e-5,"MEAN_MOTION_DOT":1.66e-6,"MEAN_MOTION_DDOT":0},{"OBJECT_NAME":"SL-3 R/B","OBJECT_ID":"1964-053B","EPOCH":"2026-03-22T19:56:56.893056","MEAN_MOTION":14.61376926,"ECCENTRICITY":0.00802137,"INCLINATION":65.0762,"RA_OF_ASC_NODE":292.7088,"ARG_OF_PERICENTER":288.0799,"MEAN_ANOMALY":71.1575,"EPHEMERIS_TYPE":0,"CLASSIFICATION_TYPE":"U","NORAD_CAT_ID":877,"ELEMENT_SET_NO":999,"REV_AT_EPOCH":26871,"BSTAR":5.4396168e-5,"MEAN_MOTION_DOT":1.56e-6,"MEAN_MOTION_DDOT":0},{"OBJECT_NAME":"SL-8 R/B","OBJECT_ID":"1967-045B","EPOCH":"2026-03-23T03:19:32.553408","MEAN_MOTION":14.45633566,"ECCENTRICITY":0.00647055,"INCLINATION":74.0122,"RA_OF_ASC_NODE":322.9747,"ARG_OF_PERICENTER":326.225,"MEAN_ANOMALY":33.4792,"EPHEMERIS_TYPE":0,"CLASSIFICATION_TYPE":"U","NORAD_CAT_ID":2802,"ELEMENT_SET_NO":999,"REV_AT_EPOCH":9096,"BSTAR":0.00010151462,"MEAN_MOTION_DOT":3.39e-6,"MEAN_MOTION_DDOT":0},{"OBJECT_NAME":"SL-8 R/B","OBJECT_ID":"1968-040B","EPOCH":"2026-03-23T00:27:59.116608","MEAN_MOTION":15.03340879,"ECCENTRICITY":0.00234655,"INCLINATION":74.0291,"RA_OF_ASC_NODE":286.4542,"ARG_OF_PERICENTER":105.0834,"MEAN_ANOMALY":255.2953,"EPHEMERIS_TYPE":0,"CLASSIFICATION_TYPE":"U","NORAD_CAT_ID":3230,"ELEMENT_SET_NO":999,"REV_AT_EPOCH":9201,"BSTAR":0.00027330401,"MEAN_MOTION_DOT":3.692e-5,"MEAN_MOTION_DDOT":0},{"OBJECT_NAME":"OAO 2","OBJECT_ID":"1968-110A","EPOCH":"2026-03-23T00:41:14.995392","MEAN_MOTION":14.47315207,"ECCENTRICITY":0.00061398,"INCLINATION":34.9925,"RA_OF_ASC_NODE":190.7462,"ARG_OF_PERICENTER":301.959,"MEAN_ANOMALY":58.0503,"EPHEMERIS_TYPE":0,"CLASSIFICATION_TYPE":"U","NORAD_CAT_ID":3597,"ELEMENT_SET_NO":999,"REV_AT_EPOCH":2103,"BSTAR":7.7507781e-5,"MEAN_MOTION_DOT":2.69e-6,"MEAN_MOTION_DDOT":0},{"OBJECT_NAME":"ISIS 1","OBJECT_ID":"1969-009A","EPOCH":"2026-03-23T04:07:54.818400","MEAN_MOTION":11.30417729,"ECCENTRICITY":0.17078809,"INCLINATION":88.4519,"RA_OF_ASC_NODE":153.8377,"ARG_OF_PERICENTER":61.965,"MEAN_ANOMALY":314.3528,"EPHEMERIS_TYPE":0,"CLASSIFICATION_TYPE":"U","NORAD_CAT_ID":3669,"ELEMENT_SET_NO":999,"REV_AT_EPOCH":35005,"BSTAR":7.9399399e-5,"MEAN_MOTION_DOT":1.33e-6,"MEAN_MOTION_DDOT":0},{"OBJECT_NAME":"SERT 2","OBJECT_ID":"1970-009A","EPOCH":"2026-03-22T21:08:34.620864","MEAN_MOTION":13.58731021,"ECCENTRICITY":0.00054848,"INCLINATION":99.2777,"RA_OF_ASC_NODE":24.2539,"ARG_OF_PERICENTER":124.8141,"MEAN_ANOMALY":303.6392,"EPHEMERIS_TYPE":0,"CLASSIFICATION_TYPE":"U","NORAD_CAT_ID":4327,"ELEMENT_SET_NO":999,"REV_AT_EPOCH":78168,"BSTAR":7.786883e-5,"MEAN_MOTION_DOT":1.6e-7,"MEAN_MOTION_DDOT":0},{"OBJECT_NAME":"SL-3 R/B","OBJECT_ID":"1971-028B","EPOCH":"2026-03-23T04:12:59.876928","MEAN_MOTION":15.62305083,"ECCENTRICITY":0.00138736,"INCLINATION":81.2376,"RA_OF_ASC_NODE":35.3595,"ARG_OF_PERICENTER":227.7896,"MEAN_ANOMALY":132.2181,"EPHEMERIS_TYPE":0,"CLASSIFICATION_TYPE":"U","NORAD_CAT_ID":5118,"ELEMENT_SET_NO":999,"REV_AT_EPOCH":99077,"BSTAR":0.00053405261,"MEAN_MOTION_DOT":0.00047558,"MEAN_MOTION_DDOT":0},{"OBJECT_NAME":"ASTEX 1","OBJECT_ID":"1971-089A","EPOCH":"2026-03-23T04:52:26.702976","MEAN_MOTION":14.50783455,"ECCENTRICITY":0.00170581,"INCLINATION":92.7102,"RA_OF_ASC_NODE":156.128,"ARG_OF_PERICENTER":45.5662,"MEAN_ANOMALY":314.6936,"EPHEMERIS_TYPE":0,"CLASSIFICATION_TYPE":"U","NORAD_CAT_ID":5560,"ELEMENT_SET_NO":999,"REV_AT_EPOCH":86426,"BSTAR":0.00011602173,"MEAN_MOTION_DOT":4.56e-6,"MEAN_MOTION_DDOT":0},{"OBJECT_NAME":"SL-8 R/B","OBJECT_ID":"1971-119B","EPOCH":"2026-03-23T05:21:59.897088","MEAN_MOTION":14.38140309,"ECCENTRICITY":0.05470001,"INCLINATION":73.886,"RA_OF_ASC_NODE":150.4177,"ARG_OF_PERICENTER":114.1932,"MEAN_ANOMALY":251.7393,"EPHEMERIS_TYPE":0,"CLASSIFICATION_TYPE":"U","NORAD_CAT_ID":5730,"ELEMENT_SET_NO":999,"REV_AT_EPOCH":65743,"BSTAR":0.0005256571,"MEAN_MOTION_DOT":0.0001006,"MEAN_MOTION_DDOT":0},{"OBJECT_NAME":"OAO 3 (COPERNICUS)","OBJECT_ID":"1972-065A","EPOCH":"2026-03-23T02:11:47.656320","MEAN_MOTION":14.60008533,"ECCENTRICITY":0.00073301,"INCLINATION":35.0049,"RA_OF_ASC_NODE":220.9582,"ARG_OF_PERICENTER":271.014,"MEAN_ANOMALY":255.9727,"EPHEMERIS_TYPE":0,"CLASSIFICATION_TYPE":"U","NORAD_CAT_ID":6153,"ELEMENT_SET_NO":999,"REV_AT_EPOCH":84815,"BSTAR":8.2392955e-5,"MEAN_MOTION_DOT":3.81e-6,"MEAN_MOTION_DDOT":0},{"OBJECT_NAME":"ATLAS CENTAUR R/B","OBJECT_ID":"1972-065B","EPOCH":"2026-03-23T01:42:58.748256","MEAN_MOTION":14.77723826,"ECCENTRICITY":0.0032944,"INCLINATION":35.0006,"RA_OF_ASC_NODE":227.3278,"ARG_OF_PERICENTER":123.2785,"MEAN_ANOMALY":237.1078,"EPHEMERIS_TYPE":0,"CLASSIFICATION_TYPE":"U","NORAD_CAT_ID":6155,"ELEMENT_SET_NO":999,"REV_AT_EPOCH":84324,"BSTAR":0.00020021229,"MEAN_MOTION_DOT":1.448e-5,"MEAN_MOTION_DDOT":0},{"OBJECT_NAME":"SL-8 R/B","OBJECT_ID":"1975-112B","EPOCH":"2026-03-23T04:56:57.673248","MEAN_MOTION":14.38211557,"ECCENTRICITY":0.00144669,"INCLINATION":74.0636,"RA_OF_ASC_NODE":354.05,"ARG_OF_PERICENTER":81.6255,"MEAN_ANOMALY":278.6539,"EPHEMERIS_TYPE":0,"CLASSIFICATION_TYPE":"U","NORAD_CAT_ID":8459,"ELEMENT_SET_NO":999,"REV_AT_EPOCH":63381,"BSTAR":0.00010025232,"MEAN_MOTION_DOT":2.79e-6,"MEAN_MOTION_DDOT":0},{"OBJECT_NAME":"SL-3 R/B","OBJECT_ID":"1977-057B","EPOCH":"2026-03-23T04:25:44.769216","MEAN_MOTION":15.45871012,"ECCENTRICITY":0.0006458,"INCLINATION":97.5796,"RA_OF_ASC_NODE":254.7043,"ARG_OF_PERICENTER":227.6159,"MEAN_ANOMALY":132.4544,"EPHEMERIS_TYPE":0,"CLASSIFICATION_TYPE":"U","NORAD_CAT_ID":10114,"ELEMENT_SET_NO":999,"REV_AT_EPOCH":67041,"BSTAR":0.00031990237,"MEAN_MOTION_DOT":0.00015463,"MEAN_MOTION_DDOT":0},{"OBJECT_NAME":"SEASAT 1","OBJECT_ID":"1978-064A","EPOCH":"2026-03-23T04:36:42.878016","MEAN_MOTION":14.46170959,"ECCENTRICITY":0.00025421,"INCLINATION":108.0083,"RA_OF_ASC_NODE":153.8318,"ARG_OF_PERICENTER":279.4156,"MEAN_ANOMALY":80.6702,"EPHEMERIS_TYPE":0,"CLASSIFICATION_TYPE":"U","NORAD_CAT_ID":10967,"ELEMENT_SET_NO":999,"REV_AT_EPOCH":50846,"BSTAR":0.00011340446,"MEAN_MOTION_DOT":2.68e-6,"MEAN_MOTION_DDOT":0},{"OBJECT_NAME":"SL-14 R/B","OBJECT_ID":"1979-011B","EPOCH":"2026-03-23T01:28:29.831232","MEAN_MOTION":14.91924521,"ECCENTRICITY":0.00165022,"INCLINATION":82.5205,"RA_OF_ASC_NODE":83.8781,"ARG_OF_PERICENTER":18.5862,"MEAN_ANOMALY":341.5956,"EPHEMERIS_TYPE":0,"CLASSIFICATION_TYPE":"U","NORAD_CAT_ID":11267,"ELEMENT_SET_NO":999,"REV_AT_EPOCH":53077,"BSTAR":6.4668003e-5,"MEAN_MOTION_DOT":6.81e-6,"MEAN_MOTION_DDOT":0}]
