ATLAS CENTAUR 2         
1 00694U 63047A   26081.48307845  .00002049  00000+0  23693-3 0  9995
2 00694  30.3540 124.1421 0547420 193.0407 165.5509 14.12113741133437
THOR AGENA D R/B        
1 00733U 64002A   26082.26750272  .00000166  00000+0  76709-4 0  9999
2 00733  99.1219  96.3449 0032311 217.5737 142.3188 14.34027088240249
SL-3 R/B                
1 00877U 64053B   26081.83121404  .00000156  00000+0  54396-4 0  9992
2 00877  65.0762 292.7088 0080213 288.0799  71.1575 14.61376926268718
SL-8 R/B                
1 02802U 67045B   26082.13857122  .00000339  00000+0  10151-3 0  9996
2 02802  74.0122 322.9747 0064705 326.2250  33.4792 14.45633566 90961
SL-8 R/B                
1 03230U 68040B   26082.01943422  .00003692  00000+0  27330-3 0  9996
2 03230  74.0291 286.4542 0023465 105.0834 255.2953 15.03340879 92018
OAO 2                   
1 03597U 68110A   26082.02864578  .00000269  00000+0  77508-4 0  9995
2 03597  34.9925 190.7462 0006139 301.9590  58.0503 14.47315207 21034
ISIS 1                  
1 03669U 69009A   26082.17216225  .00000133  00000+0  79399-4 0  9999
2 03669  88.4519 153.8377 1707880  61.9650 314.3528 11.30417729350057
SERT 2                  
1 04327U 70009A   26081.88095626  .00000016  00000+0  77869-4 0  9990
2 04327  99.2777  24.2539 0005484 124.8141 303.6392 13.58731021781683
SL-3 R/B                
1 05118U 71028B   26082.17569302  .00047558  00000+0  53405-3 0  9992
2 05118  81.2376  35.3595 0013873 227.7896 132.2181 15.62305083990770
ASTEX 1                 
1 05560U 71089A   26082.20308684  .00000456  00000+0  11602-3 0  9997
2 05560  92.7102 156.1280 0017058  45.5662 314.6936 14.50783455864261
SL-8 R/B                
1 05730U 71119B   26082.22360992  .00010060  00000+0  52566-3 0  9998
2 05730  73.8860 150.4177 0547000 114.1932 251.7393 14.38140309657439
OAO 3 (COPERNICUS)      
1 06153U 72065A   26082.09152380  .00000381  00000+0  82393-4 0  9991
2 06153  35.0049 220.9582 0007330 271.0140 255.9727 14.60008533848157
ATLAS CENTAUR R/B       
1 06155U 72065B   26082.07151329  .00001448  00000+0  20021-3 0  9997
2 06155  35.0006 227.3278 0032944 123.2785 237.1078 14.77723826843240
SL-8 R/B                
1 08459U 75112B   26082.20622307  .00000279  00000+0  10025-3 0  9990
2 08459  74.0636 354.0500 0014466  81.6255 278.6539 14.38211557633817
SL-3 R/B                
1 10114U 77057B   26082.18454594  .00015463  00000+0  31990-3 0  9994
2 10114  97.5796 254.7043 0006458 227.6159 132.4544 15.45871012670417
SEASAT 1                
1 10967U 78064A   26082.19216294  .00000268  00000+0  11340-3 0  9997
2 10967 108.0083 153.8318 0002542 279.4156  80.6702 14.46170959508463
SL-14 R/B               
1 11267U 79011B   26082.06145638  .00000681  00000+0  64668-4 0  9994
2 11267  82.5205  83.8781 0016502  18.5862 341.5956 14.91924521530773
